[{"OBJECT_NAME":"ZACUBE-1 (TSHEPISOSAT)","OBJECT_ID":"2013-066B","EPOCH":"2026-03-09T22:19:27.469056","MEAN_MOTION":15.00329659,"ECCENTRICITY":0.00425262,"INCLINATION":97.8171,"RA_OF_ASC_NODE":30.7553,"ARG_OF_PERICENTER":219.1599,"MEAN_ANOMALY":140.6545,"EPHEMERIS_TYPE":0,"CLASSIFICATION_TYPE":"U","NORAD_CAT_ID":39417,"ELEMENT_SET_NO":999,"REV_AT_EPOCH":66584,"BSTAR":0.00042975473,"MEAN_MOTION_DOT":5.431e-5,"MEAN_MOTION_DDOT":0},{"OBJECT_NAME":"STARLINK-3415","OBJECT_ID":"2022-010S","EPOCH":"2026-03-09T20:53:05.188416","MEAN_MOTION":15.0883577,"ECCENTRICITY":0.00014672,"INCLINATION":53.2168,"RA_OF_ASC_NODE":278.2438,"ARG_OF_PERICENTER":97.8599,"MEAN_ANOMALY":262.256,"EPHEMERIS_TYPE":0,"CLASSIFICATION_TYPE":"U","NORAD_CAT_ID":51472,"ELEMENT_SET_NO":999,"REV_AT_EPOCH":22685,"BSTAR":-4.9356584e-5,"MEAN_MOTION_DOT":-1.073e-5,"MEAN_MOTION_DDOT":0}]
